NORAD_CAT_ID,OBJECT_NAME,OBJECT_TYPE,EPOCH,MEAN_MOTION,ECCENTRICITY,INCLINATION,RA_OF_ASC_NODE,ARG_OF_PERICENTER,MEAN_ANOMALY,BSTAR,MEAN_MOTION_DOT,MEAN_MOTION_DDOT,TLE_LINE0,TLE_LINE1,TLE_LINE2,SEMIMAJOR_AXIS,PERIOD,APOGEE,PERIGEE,DECAYED
53802.0,STARLINK-4726,PAYLOAD,2023-05-31 04:27:42,15.08838904,0.0001032,53.2152,133.7792,85.2955,274.8155,3.5919e-05,2.84e-06,0.0,0 STARLINK-4726,1 53802U 22111AF  23151.18591165  .00000284  00000-0  35919-4 0  9998,2 53802  53.2152 133.7792 0001032  85.2955 274.8155 15.08838904 40002,6917.884,95.438,540.463,539.035,0.0
53802.0,STARLINK-4726,PAYLOAD,2023-05-31 09:13:52,15.088403,0.0001035,53.2153,132.8873,85.5224,274.5887,4.6278e-05,4.49e-06,0.0,0 STARLINK-4726,1 53802U 22111AF  23151.38463054  .00000449  00000-0  46278-4 0  9998,2 53802  53.2153 132.8873 0001035  85.5224 274.5887 15.08840300 40842,6917.879,95.438,540.46,539.028,0.0
53802.0,STARLINK-4726,PAYLOAD,2023-05-31 15:35:24,15.08835713,0.0001019,53.2151,131.6975,83.2093,276.9015,2.6652e-05,1.36e-06,0.0,0 STARLINK-4726,1 53802U 22111AF  23151.64959449  .00000136  00000-0  26652-4 0  9992,2 53802  53.2151 131.6975 0001019  83.2093 276.9015 15.08835713 40886,6917.893,95.438,540.463,539.054,0.0
53802.0,STARLINK-4726,PAYLOAD,2023-06-01 02:43:07,15.08833451,0.0001025,53.2152,129.6162,87.8052,272.3057,3.5545e-05,2.78e-06,0.0,0 STARLINK-4726,1 53802U 22111AF  23152.11327732  .00000278  00000-0  35545-4 0  9997,2 53802  53.2152 129.6162 0001025  87.8052 272.3057 15.08833451 40146,6917.9,95.438,540.474,539.056,0.0
53802.0,STARLINK-4726,PAYLOAD,2023-06-01 07:29:16,15.08838694,0.0001072,53.2151,128.7245,91.1568,268.9546,7.5608e-05,9.16e-06,0.0,0 STARLINK-4726,1 53802U 22111AF  23152.31199336  .00000916  00000-0  75608-4 0  9999,2 53802  53.2151 128.7245 0001072  91.1568 268.9546 15.08838694 40989,6917.884,95.438,540.491,539.008,0.0
53802.0,STARLINK-4726,PAYLOAD,2023-06-02 05:44:40,15.08842016,0.0001096,53.215,124.5612,92.8929,267.2189,5.2782e-05,5.52e-06,0.0,0 STARLINK-4726,1 53802U 22111AF  23153.23935294  .00000552  00000-0  52782-4 0  9996,2 53802  53.2150 124.5612 0001096  92.8929 267.2189 15.08842016 41120,6917.874,95.437,540.497,538.981,0.0
53802.0,STARLINK-4726,PAYLOAD,2023-06-02 15:16:59,15.08839454,0.000113,53.2152,122.7765,90.097,270.0152,-2.2191e-05,-6.41e-06,0.0,0 STARLINK-4726,1 53802U 22111AF  23153.63679736 -.00000641  00000-0 -22191-4 0  9998,2 53802  53.2152 122.7765 0001130  90.0970 270.0152 15.08839454 40376,6917.882,95.438,540.529,538.965,0.0
53802.0,STARLINK-4726,PAYLOAD,2023-06-03 07:10:51,15.08835409,0.0001186,53.2156,119.8018,92.4991,267.6137,1.8393e-06,-2.59e-06,0.0,0 STARLINK-4726,1 53802U 22111AF  23154.29920179 -.00000259  00000-0  18393-5 0  9995,2 53802  53.2156 119.8018 0001186  92.4991 267.6137 15.08835409 41280,6917.894,95.438,540.58,538.939,0.0
53802.0,STARLINK-4726,PAYLOAD,2023-06-04 02:15:27,15.08846739,0.0001168,53.2161,116.2342,90.29,269.8225,8.4141e-05,1.052e-05,0.0,0 STARLINK-4726,1 53802U 22111AF  23155.09407139  .00001052  00000-0  84141-4 0  9994,2 53802  53.2161 116.2342 0001168  90.2900 269.8225 15.08846739 40596,6917.86,95.437,540.533,538.917,0.0
53802.0,STARLINK-4726,PAYLOAD,2023-06-04 07:01:36,15.08848689,0.0001186,53.216,115.3424,89.1304,270.9824,0.00010884,1.445e-05,0.0,0 STARLINK-4726,1 53802U 22111AF  23155.29278882  .00001445  00000-0  10884-3 0  9995,2 53802  53.2160 115.3424 0001186  89.1304 270.9824 15.08848689 41439,6917.854,95.437,540.539,538.898,0.0
53802.0,STARLINK-4726,PAYLOAD,2023-06-04 21:20:05,15.08836385,0.0001297,53.2178,112.6645,99.7349,260.3789,8.2046e-05,1.018e-05,0.0,0 STARLINK-4726,1 53802U 22111AF  23155.88895662  .00001018  00000-0  82046-4 0  9997,2 53802  53.2178 112.6645 0001297  99.7349 260.3789 15.08836385 41525,6917.891,95.438,540.654,538.859,0.0
53802.0,STARLINK-4726,PAYLOAD,2023-06-05 03:41:38,15.08839066,0.0001247,53.2165,111.4782,91.4989,268.6146,4.7879e-05,4.74e-06,0.0,0 STARLINK-4726,1 53802U 22111AF  23156.15391680  .00000474  00000-0  47879-4 0  9999,2 53802  53.2165 111.4782 0001247  91.4989 268.6146 15.08839066 40755,6917.883,95.438,540.611,538.886,0.0
53802.0,STARLINK-4726,PAYLOAD,2023-06-05 06:52:24,15.08841319,0.0001272,53.2166,110.8827,94.362,265.7517,7.0705e-05,8.38e-06,0.0,0 STARLINK-4726,1 53802U 22111AF  23156.28639435  .00000838  00000-0  70705-4 0  9994,2 53802  53.2166 110.8827 0001272  94.3620 265.7517 15.08841319 41587,6917.876,95.437,540.621,538.861,0.0
53802.0,STARLINK-4726,PAYLOAD,2023-06-06 00:21:39,15.08835235,0.0001271,53.2159,107.6092,107.5598,252.5533,-8.4162e-05,-1.627e-05,0.0,0 STARLINK-4726,1 53802U 22111AF  23157.01504359 -.00001627  00000-0 -84162-4 0  9993,2 53802  53.2159 107.6092 0001271 107.5598 252.5533 15.08835235 40881,6917.895,95.438,540.639,538.881,0.0
53802.0,STARLINK-4726,PAYLOAD,2023-06-06 03:32:25,15.08838313,0.0001268,53.216,107.0145,106.873,253.2401,-5.4856e-05,-1.161e-05,0.0,0 STARLINK-4726,1 53802U 22111AF  23157.14752100 -.00001161  00000-0 -54856-4 0  9996,2 53802  53.2160 107.0145 0001268 106.8730 253.2401 15.08838313 41717,6917.886,95.438,540.628,538.873,0.0
53802.0,STARLINK-4726,PAYLOAD,2023-06-06 21:01:40,15.08834787,0.0001186,53.2163,103.7463,90.685,269.4278,6.0672e-05,6.78e-06,0.0,0 STARLINK-4726,1 53802U 22111AF  23157.87616211  .00000678  00000-0  60672-4 0  9991,2 53802  53.2163 103.7463 0001186  90.6850 269.4278 15.08834787 41822,6917.896,95.438,540.582,538.941,0.0
53802.0,STARLINK-4726,PAYLOAD,2023-06-07 01:47:49,15.08837181,0.0001165,53.2163,102.8547,89.8235,270.2891,5.9265e-05,6.55e-06,0.0,0 STARLINK-4726,1 53802U 22111AF  23158.07488115  .00000655  00000-0  59265-4 0  9995,2 53802  53.2163 102.8547 0001165  89.8235 270.2891 15.08837181 41045,6917.889,95.438,540.56,538.948,0.0
53802.0,STARLINK-4726,PAYLOAD,2023-06-08 03:14:00,15.08833818,0.0001157,53.2167,98.0968,88.2192,271.8933,4.8445e-05,4.83e-06,0.0,0 STARLINK-4726,1 53802U 22111AF  23159.13472780  .00000483  00000-0  48445-4 0  9991,2 53802  53.2167  98.0968 0001157  88.2192 271.8933 15.08833818 41203,6917.899,95.438,540.565,538.964,0.0
53802.0,STARLINK-4726,PAYLOAD,2023-06-08 04:49:23,15.08835283,0.0001173,53.2168,97.7991,86.827,273.2856,5.8075e-05,6.36e-06,0.0,0 STARLINK-4726,1 53802U 22111AF  23159.20096697  .00000636  00000-0  58075-4 0  9998,2 53802  53.2168  97.7991 0001173  86.8270 273.2856 15.08835283 42024,6917.895,95.438,540.571,538.948,0.0
53802.0,STARLINK-4726,PAYLOAD,2023-06-09 04:40:09,15.08847582,0.000124,53.2176,93.3392,90.9749,269.1385,0.00010371,1.363e-05,0.0,0 STARLINK-4726,1 53802U 22111AF  23160.19455903  .00001363  00000-0  10371-3 0  9991,2 53802  53.2176  93.3392 0001240  90.9749 269.1385 15.08847582 41364,6917.857,95.437,540.58,538.864,0.0
53802.0,STARLINK-4726,PAYLOAD,2023-06-09 12:37:06,15.0883704,0.0001331,53.2175,91.8498,85.4572,274.6572,4.3049e-05,3.97e-06,0.0,0 STARLINK-4726,1 53802U 22111AF  23160.52576758  .00000397  00000-0  43049-4 0  9995,2 53802  53.2175  91.8498 0001331  85.4572 274.6572 15.08837040 42220,6917.889,95.438,540.675,538.834,0.0
53802.0,STARLINK-4726,PAYLOAD,2023-06-10 04:30:56,15.08853435,9.95e-05,53.2178,88.8785,89.1653,270.9453,0.00016584,2.353e-05,0.0,0 STARLINK-4726,1 53802U 22111AF  23161.18815377  .00002353  00000-0  16584-3 0  9998,2 53802  53.2178  88.8785 0000995  89.1653 270.9453 15.08853435 41518,6917.839,95.437,540.393,539.016,0.0
53802.0,STARLINK-4726,PAYLOAD,2023-06-10 12:27:53,15.08837279,0.0001298,53.2171,87.391,82.1107,278.0032,1.4821e-05,-5.2e-07,0.0,0 STARLINK-4726,1 53802U 22111AF  23161.51936944 -.00000052  00000-0  14821-4 0  9997,2 53802  53.2171  87.3910 0001298  82.1107 278.0032 15.08837279 42374,6917.889,95.438,540.652,538.856,0.0
53802.0,STARLINK-4726,PAYLOAD,2023-06-11 12:18:40,15.08846499,0.0001225,53.2175,82.9295,91.8495,268.2637,2.5815e-06,-2.47e-06,0.0,0 STARLINK-4726,1 53802U 22111AF  23162.51296358 -.00000247  00000-0  25815-5 0  9998,2 53802  53.2175  82.9295 0001225  91.8495 268.2637 15.08846499 42525,6917.861,95.437,540.573,538.878,0.0
53802.0,STARLINK-4726,PAYLOAD,2023-06-11 18:40:12,15.08838742,0.0001023,53.2177,81.7407,88.424,271.6869,7.0888e-05,8.41e-06,0.0,0 STARLINK-4726,1 53802U 22111AF  23162.77792609  .00000841  00000-0  70888-4 0  9994,2 53802  53.2177  81.7407 0001023  88.4240 271.6869 15.08838742 42566,6917.884,95.438,540.457,539.042,0.0
53802.0,STARLINK-4726,PAYLOAD,2023-06-12 01:01:45,15.08842388,8.83e-05,53.2165,80.553,86.5897,273.5196,0.00011928,1.611e-05,0.0,0 STARLINK-4726,1 53802U 22111AF  23163.04288195  .00001611  00000-0  11928-3 0  9990,2 53802  53.2165  80.5530 0000883  86.5897 273.5196 15.08842388 42607,6917.873,95.437,540.349,539.127,0.0
53802.0,STARLINK-4726,PAYLOAD,2023-06-12 23:17:09,15.08834105,0.0001294,53.2178,76.3888,90.6984,269.4157,2.5706e-05,1.21e-06,0.0,0 STARLINK-4726,1 53802U 22111AF  23163.97025085  .00000121  00000-0  25706-4 0  9994,2 53802  53.2178  76.3888 0001294  90.6984 269.4157 15.08834105 41934,6917.898,95.438,540.659,538.868,0.0
53802.0,STARLINK-4726,PAYLOAD,2023-06-13 18:21:47,15.08837541,0.0001044,53.2182,72.8205,98.6657,261.4453,-3.6968e-05,-8.76e-06,0.0,0 STARLINK-4726,1 53802U 22111AF  23164.76513082 -.00000876  00000-0 -36968-4 0  9992,2 53802  53.2182  72.8205 0001044  98.6657 261.4453 15.08837541 42862,6917.888,95.438,540.475,539.031,0.0
53802.0,STARLINK-4726,PAYLOAD,2023-06-14 02:18:42,15.08840337,0.0001148,53.2181,71.336,85.4275,274.6849,8.4522e-07,-2.74e-06,0.0,0 STARLINK-4726,1 53802U 22111AF  23165.09632878 -.00000274  00000-0  84522-6 0  9996,2 53802  53.2181  71.3360 0001148  85.4275 274.6849 15.08840337 42101,6917.879,95.438,540.539,538.95,0.0
53802.0,STARLINK-4726,PAYLOAD,2023-06-14 18:12:34,15.0883479,0.0001283,53.219,68.3663,112.5542,247.5586,1.397e-05,-6.6e-07,0.0,0 STARLINK-4726,1 53802U 22111AF  23165.75873417 -.00000066  00000-0  13970-4 0  9991,2 53802  53.2190  68.3663 0001283 112.5542 247.5586 15.08834790 43016,6917.896,95.438,540.649,538.874,0.0
